start=new Date('2023-06-22T00:00:00.000Z').valueOf();
sats=[{"NORAD_CAT_ID":"56328","RCS_SIZE":"LARGE","PERIOD":"95.919","ARG_OF_PERICENTER":"98.9434","RA_OF_ASC_NODE":"173.7176","REF_FRAME":"TEME","SITE":"AFWTR","TLE_LINE1":"1 56328U 23058M   23172.74166957  .00000279  00000-0  26308-4 0  9993","APOAPSIS":"564.547","COUNTRY_CODE":"US","PERIAPSIS":"561.483","CENTER_NAME":"EARTH","DECAY_DATE":null,"MEAN_MOTION":"15.01258871","GP_ID":"234441193","FILE":"3939232","ECCENTRICITY":"0.00022070","TIME_SYSTEM":"UTC","OBJECT_NAME":"STARLINK-5992","OBJECT_ID":"2023-058M","OBJECT_TYPE":"PAYLOAD","SEMIMAJOR_AXIS":"6941.150","LAUNCH_DATE":"2023-04-27","TLE_LINE2":"2 56328  97.6559 173.7176 0002207  98.9434 261.2040 15.01258871  8817","MEAN_MOTION_DDOT":"0.0000000000000","MEAN_MOTION_DOT":"0.00000279","BSTAR":"0.00002630800000","EPHEMERIS_TYPE":"0","MEAN_ELEMENT_THEORY":"SGP4","REV_AT_EPOCH":"881","INCLINATION":"97.6559","CLASSIFICATION_TYPE":"U","MEAN_ANOMALY":"261.2040","ELEMENT_SET_NO":"999","EPOCH":"2023-06-21T17:48:00.250848"},{"SEMIMAJOR_AXIS":"6941.111","OBJECT_TYPE":"PAYLOAD","OBJECT_NAME":"STARLINK-5984","OBJECT_ID":"2023-058N","MEAN_MOTION_DDOT":"0.0000000000000","MEAN_MOTION_DOT":"-0.00001208","TLE_LINE2":"2 56329  97.6561 173.5247 0002063  95.5652 264.5807 15.01271552  9272","LAUNCH_DATE":"2023-04-27","REV_AT_EPOCH":"927","INCLINATION":"97.6561","MEAN_ELEMENT_THEORY":"SGP4","BSTAR":"-0.00008941900000","EPHEMERIS_TYPE":"0","EPOCH":"2023-06-21T12:54:43.707168","CLASSIFICATION_TYPE":"U","MEAN_ANOMALY":"264.5807","ELEMENT_SET_NO":"999","SITE":"AFWTR","REF_FRAME":"TEME","TLE_LINE1":"1 56329U 23058N   23172.53800587 -.00001208  00000-0 -89419-4 0  9992","RA_OF_ASC_NODE":"173.5247","PERIOD":"95.919","RCS_SIZE":"LARGE","ARG_OF_PERICENTER":"95.5652","NORAD_CAT_ID":"56329","APOAPSIS":"564.408","GP_ID":"234438120","ECCENTRICITY":"0.00020630","FILE":"3939133","MEAN_MOTION":"15.01271552","CENTER_NAME":"EARTH","DECAY_DATE":null,"PERIAPSIS":"561.544","COUNTRY_CODE":"US","TIME_SYSTEM":"UTC"},{"EPHEMERIS_TYPE":"0","BSTAR":"0.00005402500000","MEAN_ELEMENT_THEORY":"SGP4","INCLINATION":"97.6569","REV_AT_EPOCH":"927","ELEMENT_SET_NO":"999","CLASSIFICATION_TYPE":"U","MEAN_ANOMALY":"269.5925","EPOCH":"2023-06-21T13:02:44.064384","OBJECT_ID":"2023-058P","OBJECT_NAME":"STARLINK-5967","OBJECT_TYPE":"PAYLOAD","SEMIMAJOR_AXIS":"6941.157","LAUNCH_DATE":"2023-04-27","TLE_LINE2":"2 56330  97.6569 173.5178 0002247  90.5556 269.5925 15.01256745  9270","MEAN_MOTION_DDOT":"0.0000000000000","MEAN_MOTION_DOT":"0.00000635","COUNTRY_CODE":"US","PERIAPSIS":"561.462","DECAY_DATE":null,"CENTER_NAME":"EARTH","MEAN_MOTION":"15.01256745","ECCENTRICITY":"0.00022470","FILE":"3939133","GP_ID":"234438368","TIME_SYSTEM":"UTC","NORAD_CAT_ID":"56330","RCS_SIZE":"LARGE","PERIOD":"95.920","ARG_OF_PERICENTER":"90.5556","RA_OF_ASC_NODE":"173.5178","TLE_LINE1":"1 56330U 23058P   23172.54356556  .00000635  00000-0  54025-4 0  9993","SITE":"AFWTR","REF_FRAME":"TEME","APOAPSIS":"564.582"},{"EPHEMERIS_TYPE":"0","BSTAR":"-0.00002950300000","MEAN_ELEMENT_THEORY":"SGP4","REV_AT_EPOCH":"881","INCLINATION":"97.6550","ELEMENT_SET_NO":"999","MEAN_ANOMALY":"263.5168","CLASSIFICATION_TYPE":"U","EPOCH":"2023-06-21T17:34:40.323360","OBJECT_ID":"2023-058Q","OBJECT_NAME":"STARLINK-5991","OBJECT_TYPE":"PAYLOAD","SEMIMAJOR_AXIS":"6941.136","LAUNCH_DATE":"2023-04-27","TLE_LINE2":"2 56331  97.6550 173.7290 0002419  96.6332 263.5168 15.01263648  8810","MEAN_MOTION_DDOT":"0.0000000000000","MEAN_MOTION_DOT":"-0.00000438","PERIAPSIS":"561.322","COUNTRY_CODE":"US","DECAY_DATE":null,"CENTER_NAME":"EARTH","MEAN_MOTION":"15.01263648","ECCENTRICITY":"0.00024190","FILE":"3939191","GP_ID":"234440710","TIME_SYSTEM":"UTC","NORAD_CAT_ID":"56331","PERIOD":"95.919","RCS_SIZE":"LARGE","ARG_OF_PERICENTER":"96.6332","RA_OF_ASC_NODE":"173.7290","TLE_LINE1":"1 56331U 23058Q   23172.73241115 -.00000438  00000-0 -29503-4 0  9995","REF_FRAME":"TEME","SITE":"AFWTR","APOAPSIS":"564.680"},{"OBJECT_ID":"2023-058R","OBJECT_NAME":"STARLINK-5093","SEMIMAJOR_AXIS":"6941.156","OBJECT_TYPE":"PAYLOAD","TLE_LINE2":"2 56332  97.6555 173.5247 0002219  99.2138 260.9337 15.01257031  8781","LAUNCH_DATE":"2023-04-27","MEAN_MOTION_DDOT":"0.0000000000000","MEAN_MOTION_DOT":"0.00000657","BSTAR":"0.00005574000000","EPHEMERIS_TYPE":"0","REV_AT_EPOCH":"878","INCLINATION":"97.6555","MEAN_ELEMENT_THEORY":"SGP4","EPOCH":"2023-06-21T12:55:05.177568","ELEMENT_SET_NO":"999","MEAN_ANOMALY":"260.9337","CLASSIFICATION_TYPE":"U","ARG_OF_PERICENTER":"99.2138","RCS_SIZE":"LARGE","PERIOD":"95.920","NORAD_CAT_ID":"56332","TLE_LINE1":"1 56332U 23058R   23172.53825437  .00000657  00000-0  55740-4 0  9992","REF_FRAME":"TEME","SITE":"AFWTR","RA_OF_ASC_NODE":"173.5247","APOAPSIS":"564.561","DECAY_DATE":null,"CENTER_NAME":"EARTH","COUNTRY_CODE":"US","PERIAPSIS":"561.481","ECCENTRICITY":"0.00022190","FILE":"3939166","GP_ID":"234439892","MEAN_MOTION":"15.01257031","TIME_SYSTEM":"UTC"},{"APOAPSIS":"564.460","RA_OF_ASC_NODE":"173.5341","TLE_LINE1":"1 56333U 23058S   23172.53060620 -.00000579  00000-0 -40443-4 0  9997","SITE":"AFWTR","REF_FRAME":"TEME","NORAD_CAT_ID":"56333","ARG_OF_PERICENTER":"106.9547","RCS_SIZE":"LARGE","PERIOD":"95.919","TIME_SYSTEM":"UTC","MEAN_MOTION":"15.01267490","FILE":"3938860","ECCENTRICITY":"0.00021200","GP_ID":"234405677","COUNTRY_CODE":"US","PERIAPSIS":"561.517","DECAY_DATE":null,"CENTER_NAME":"EARTH","MEAN_MOTION_DDOT":"0.0000000000000","MEAN_MOTION_DOT":"-0.00000579","LAUNCH_DATE":"2023-04-27","TLE_LINE2":"2 56333  97.6548 173.5341 0002120 106.9547 253.1910 15.01267490  8781","OBJECT_TYPE":"PAYLOAD","SEMIMAJOR_AXIS":"6941.124","OBJECT_ID":"2023-058S","OBJECT_NAME":"STARLINK-5553","ELEMENT_SET_NO":"999","MEAN_ANOMALY":"253.1910","CLASSIFICATION_TYPE":"U","EPOCH":"2023-06-21T12:44:04.375680","MEAN_ELEMENT_THEORY":"SGP4","REV_AT_EPOCH":"878","INCLINATION":"97.6548","EPHEMERIS_TYPE":"0","BSTAR":"-0.00004044300000"},{"LAUNCH_DATE":"2023-04-27","TLE_LINE2":"2 56334  97.6551 173.5295 0002518  96.2028 263.9483 15.01258688  8783","MEAN_MOTION_DOT":"0.00000482","MEAN_MOTION_DDOT":"0.0000000000000","OBJECT_NAME":"STARLINK-5548","OBJECT_ID":"2023-058T","OBJECT_TYPE":"PAYLOAD","SEMIMAJOR_AXIS":"6941.151","MEAN_ANOMALY":"263.9483","CLASSIFICATION_TYPE":"U","ELEMENT_SET_NO":"999","EPOCH":"2023-06-21T12:49:24.042720","BSTAR":"0.00004211300000","EPHEMERIS_TYPE":"0","MEAN_ELEMENT_THEORY":"SGP4","INCLINATION":"97.6551","REV_AT_EPOCH":"878","APOAPSIS":"564.764","NORAD_CAT_ID":"56334","PERIOD":"95.920","RCS_SIZE":"LARGE","ARG_OF_PERICENTER":"96.2028","RA_OF_ASC_NODE":"173.5295","SITE":"AFWTR","REF_FRAME":"TEME","TLE_LINE1":"1 56334U 23058T   23172.53430605  .00000482  00000-0  42113-4 0  9999","TIME_SYSTEM":"UTC","COUNTRY_CODE":"US","PERIAPSIS":"561.268","CENTER_NAME":"EARTH","DECAY_DATE":null,"MEAN_MOTION":"15.01258688","GP_ID":"234404696","ECCENTRICITY":"0.00025180","FILE":"3938847"},{"CENTER_NAME":"EARTH","DECAY_DATE":null,"PERIAPSIS":"561.875","COUNTRY_CODE":"US","GP_ID":"234405051","FILE":"3938853","ECCENTRICITY":"0.00016230","MEAN_MOTION":"15.01263473","TIME_SYSTEM":"UTC","PERIOD":"95.919","RCS_SIZE":"LARGE","ARG_OF_PERICENTER":"107.3949","NORAD_CAT_ID":"56335","REF_FRAME":"TEME","SITE":"AFWTR","TLE_LINE1":"1 56335U 23058U   23172.52528861 -.00001304  00000-0 -96979-4 0  9996","RA_OF_ASC_NODE":"173.5423","APOAPSIS":"564.128","BSTAR":"-0.00009697900000","EPHEMERIS_TYPE":"0","INCLINATION":"97.6546","REV_AT_EPOCH":"878","MEAN_ELEMENT_THEORY":"SGP4","EPOCH":"2023-06-21T12:36:24.935904","MEAN_ANOMALY":"252.7453","CLASSIFICATION_TYPE":"U","ELEMENT_SET_NO":"999","OBJECT_NAME":"STARLINK-5559","OBJECT_ID":"2023-058U","SEMIMAJOR_AXIS":"6941.136","OBJECT_TYPE":"PAYLOAD","TLE_LINE2":"2 56335  97.6546 173.5423 0001623 107.3949 252.7453 15.01263473  8784","LAUNCH_DATE":"2023-04-27","MEAN_MOTION_DDOT":"0.0000000000000","MEAN_MOTION_DOT":"-0.00001304"},{"APOAPSIS":"564.359","ARG_OF_PERICENTER":"103.7927","RCS_SIZE":"LARGE","PERIOD":"95.920","NORAD_CAT_ID":"56336","REF_FRAME":"TEME","SITE":"AFWTR","TLE_LINE1":"1 56336U 23058V   23172.73265438  .00000002  00000-0  47557-5 0  9999","RA_OF_ASC_NODE":"173.7290","TIME_SYSTEM":"UTC","CENTER_NAME":"EARTH","DECAY_DATE":null,"COUNTRY_CODE":"US","PERIAPSIS":"561.673","GP_ID":"234439430","ECCENTRICITY":"0.00019350","FILE":"3939169","MEAN_MOTION":"15.01258704","TLE_LINE2":"2 56336  97.6551 173.7290 0001935 103.7927 256.3513 15.01258704  8819","LAUNCH_DATE":"2023-04-27","MEAN_MOTION_DDOT":"0.0000000000000","MEAN_MOTION_DOT":"0.00000002","OBJECT_NAME":"STARLINK-5562","OBJECT_ID":"2023-058V","SEMIMAJOR_AXIS":"6941.151","OBJECT_TYPE":"PAYLOAD","EPOCH":"2023-06-21T17:35:01.338432","MEAN_ANOMALY":"256.3513","CLASSIFICATION_TYPE":"U","ELEMENT_SET_NO":"999","BSTAR":"0.00000475570000","EPHEMERIS_TYPE":"0","REV_AT_EPOCH":"881","INCLINATION":"97.6551","MEAN_ELEMENT_THEORY":"SGP4"},{"OBJECT_NAME":"STARLINK-5561","OBJECT_ID":"2023-058W","SEMIMAJOR_AXIS":"6941.138","OBJECT_TYPE":"PAYLOAD","TLE_LINE2":"2 56337  97.6544 173.4766 0001445 113.6308 246.5068 15.01263007  9264","LAUNCH_DATE":"2023-04-27","MEAN_MOTION_DOT":"-0.00000290","MEAN_MOTION_DDOT":"0.0000000000000","EPHEMERIS_TYPE":"0","BSTAR":"-0.00001799400000","REV_AT_EPOCH":"926","INCLINATION":"97.6544","MEAN_ELEMENT_THEORY":"SGP4","EPOCH":"2023-06-21T11:00:04.870944","MEAN_ANOMALY":"246.5068","CLASSIFICATION_TYPE":"U","ELEMENT_SET_NO":"999","RCS_SIZE":"LARGE","ARG_OF_PERICENTER":"113.6308","PERIOD":"95.919","NORAD_CAT_ID":"56337","SITE":"AFWTR","REF_FRAME":"TEME","TLE_LINE1":"1 56337U 23058W   23172.45838971 -.00000290  00000-0 -17994-4 0  9999","RA_OF_ASC_NODE":"173.4766","APOAPSIS":"564.006","CENTER_NAME":"EARTH","DECAY_DATE":null,"PERIAPSIS":"562.000","COUNTRY_CODE":"US","GP_ID":"234438121","ECCENTRICITY":"0.00014450","FILE":"3939133","MEAN_MOTION":"15.01263007","TIME_SYSTEM":"UTC"}];
